OBJECT_NAME,OBJECT_ID,EPOCH,MEAN_MOTION,ECCENTRICITY,INCLINATION,RA_OF_ASC_NODE,ARG_OF_PERICENTER,MEAN_ANOMALY,EPHEMERIS_TYPE,CLASSIFICATION_TYPE,NORAD_CAT_ID,ELEMENT_SET_NO,REV_AT_EPOCH,BSTAR,MEAN_MOTION_DOT,MEAN_MOTION_DDOT
ONEWEB-0054,2020-008AD,2026-06-09T08:53:39.672384,13.10369558,.0001871,87.8847,37.8234,83.1744,276.9597,0,U,45158,999,30700,-.13017E-2,-.442E-5,0
ONEWEB-0056,2020-008AE,2026-06-09T10:02:51.160416,13.10373598,.0001939,87.8847,37.8076,90.2740,269.8609,0,U,45159,999,30716,.18477E-2,.658E-5,0
ONEWEB-0057,2020-008AF,2026-06-09T08:37:08.603040,13.10368820,.0002242,87.8840,37.8320,74.4903,285.6472,0,U,45160,999,30732,-.55772E-6,.12E-6,0
ONEWEB-0058,2020-008AG,2026-06-09T10:07:59.668896,13.10370386,.000159,87.8838,37.8259,79.5887,280.5420,0,U,45161,999,30740,.15349E-2,.548E-5,0
ONEWEB-0059,2020-008AH,2026-06-09T10:03:13.070592,13.10371828,.0001726,87.8838,37.8254,75.5524,284.5795,0,U,45162,999,30730,.18928E-2,.673E-5,0
ONEWEB-0062,2020-008AJ,2026-06-09T08:46:18.024096,13.10369585,.0001391,87.8845,37.8229,87.9082,272.2205,0,U,45163,999,30716,-.77172E-3,-.257E-5,0
ONEWEB-0065,2020-008AK,2026-06-09T09:34:06.892032,13.10375439,.0002175,87.8848,37.8244,81.8453,278.2921,0,U,45164,999,30686,.54586E-4,.32E-6,0
ONEWEB-0066,2020-020A,2026-06-09T08:44:45.939840,13.11419451,.0001736,87.8895,22.6286,78.5461,281.5862,0,U,45424,999,30165,.90841E-3,.335E-5,0
ONEWEB-0067,2020-020B,2026-06-09T07:49:30.427968,13.11422149,.0001983,87.8914,22.5564,82.2899,277.8454,0,U,45425,999,30170,-.9979E-3,-.341E-5,0
ONEWEB-0080,2020-020C,2026-06-09T07:48:48.587040,13.11415252,.0001525,87.8903,22.6315,88.9691,271.1612,0,U,45426,999,30167,-.79668E-3,-.27E-5,0
ONEWEB-0090,2020-020D,2026-06-09T08:30:18.423360,13.11419838,.0001744,87.8904,22.6307,85.8338,274.2989,0,U,45427,999,30164,-.20138E-3,-.59E-6,0
ONEWEB-0061,2020-020E,2026-06-09T07:26:26.705184,13.11415978,.0001755,87.8901,22.6240,83.3395,276.7933,0,U,45428,999,30159,.1E-2,.367E-5,0
ONEWEB-0081,2020-020F,2026-06-09T08:49:39.290304,13.11419275,.0001875,87.8896,22.6235,78.1313,282.0025,0,U,45429,999,30171,.11301E-2,.413E-5,0
ONEWEB-0069,2020-020G,2026-06-09T08:52:17.208768,13.11419957,.0001846,87.8899,22.6258,81.5880,278.5458,0,U,45430,999,30164,.1336E-2,.486E-5,0
ONEWEB-0031,2020-020H,2026-06-09T07:53:29.537376,13.11416015,.0001648,87.8890,22.6395,88.1638,271.9679,0,U,45431,999,30162,-.10434E-2,-.357E-5,0
ONEWEB-0027,2020-020J,2026-06-09T12:16:20.697888,13.16053987,.0001839,87.9149,7.3895,97.5031,262.6309,0,U,45432,999,30534,-.28236E-4,.2E-7,0
ONEWEB-0064,2020-020K,2026-06-09T07:51:02.800800,13.11414477,.0001734,87.8896,22.6313,89.3381,270.7945,0,U,45433,999,30165,-.10999E-2,-.377E-5,0
ONEWEB-0018,2020-020L,2026-06-08T12:28:46.937280,13.11481521,.00018178,87.8896,22.7916,185.1746,174.9363,0,U,45434,999,30149,.21846425E-1,.7769E-4,0
ONEWEB-0083,2020-020M,2026-06-09T08:22:59.869056,13.11417990,.0001724,87.8902,22.6199,84.2416,275.8909,0,U,45435,999,30164,-.81073E-3,-.275E-5,0
ONEWEB-0095,2020-020N,2026-06-09T08:10:48.925920,13.11407558,.0002535,87.8915,22.6315,97.2999,262.8417,0,U,45436,999,30164,.48968E-2,.1748E-4,0
ONEWEB-0092,2020-020P,2026-06-09T08:56:04.776864,13.11955328,.0002148,87.8902,22.6157,85.7760,274.3613,0,U,45437,999,30176,.13439E-2,.493E-5,0
ONEWEB-0085,2020-020Q,2026-06-09T08:22:35.666688,13.11419423,.0001808,87.8897,22.6272,84.6232,275.5103,0,U,45438,999,30164,-.89276E-3,-.304E-5,0
ONEWEB-0096,2020-020R,2026-06-09T08:25:16.559040,13.11423830,.0001844,87.8904,22.6222,86.8824,273.2515,0,U,45439,999,30163,-.69313E-3,-.233E-5,0
ONEWEB-0037,2020-020S,2026-06-09T07:27:36.627840,13.11910959,.0001896,87.8913,22.6038,85.7854,274.3491,0,U,45440,999,30166,.7518E-3,.281E-5,0
ONEWEB-0042,2020-020T,2026-06-09T08:10:22.674144,13.11416963,.0001874,87.8901,22.6208,81.8297,278.3044,0,U,45441,999,30163,-.18677E-2,-.649E-5,0
ONEWEB-0098,2020-020U,2026-06-09T08:04:28.729632,13.11416508,.0001717,87.8899,22.6307,85.7142,274.4182,0,U,45442,999,30161,-.14868E-2,-.514E-5,0
ONEWEB-0055,2020-020V,2026-06-09T07:33:47.439360,13.11413102,.000172,87.8899,22.6334,85.6318,274.5007,0,U,45443,999,30158,.46667E-3,.178E-5,0
ONEWEB-0093,2020-020W,2026-06-09T08:54:44.252064,13.11418626,.0002031,87.8902,22.6152,74.0141,286.1210,0,U,45444,999,30165,.15325E-2,.556E-5,0
ONEWEB-0029,2020-020X,2026-06-09T07:43:55.994304,13.11417901,.0001799,87.8890,22.6349,75.5200,284.6127,0,U,45445,999,30162,-.5624E-3,-.187E-5,0
ONEWEB-0068,2020-020Y,2026-06-09T08:54:21.160800,13.11417559,.0001805,87.8904,22.6191,77.5979,282.5351,0,U,45446,999,30157,.14696E-2,.534E-5,0
ONEWEB-0046,2020-020Z,2026-06-09T08:42:19.310400,13.11419653,.0002039,87.8892,22.6273,80.1472,279.9886,0,U,45447,999,30158,.98728E-3,.363E-5,0
