ONEWEB-0054             
1 45158U 20008AD  26160.37059806 -.00000442  00000+0 -13017-2 0  9991
2 45158  87.8847  37.8234 0001871  83.1744 276.9597 13.10369558307004
ONEWEB-0056             
1 45159U 20008AE  26160.41864769  .00000658  00000+0  18477-2 0  9991
2 45159  87.8847  37.8076 0001939  90.2740 269.8609 13.10373598307160
ONEWEB-0057             
1 45160U 20008AF  26160.35912735  .00000012  00000+0 -55772-6 0  9991
2 45160  87.8840  37.8320 0002242  74.4903 285.6472 13.10368820307324
ONEWEB-0058             
1 45161U 20008AG  26160.42221839  .00000548  00000+0  15349-2 0  9993
2 45161  87.8838  37.8259 0001590  79.5887 280.5420 13.10370386307401
ONEWEB-0059             
1 45162U 20008AH  26160.41890128  .00000673  00000+0  18928-2 0  9991
2 45162  87.8838  37.8254 0001726  75.5524 284.5795 13.10371828307302
ONEWEB-0062             
1 45163U 20008AJ  26160.36548639 -.00000257  00000+0 -77172-3 0  9990
2 45163  87.8845  37.8229 0001391  87.9082 272.2205 13.10369585307168
ONEWEB-0065             
1 45164U 20008AK  26160.39869088  .00000032  00000+0  54586-4 0  9992
2 45164  87.8848  37.8244 0002175  81.8453 278.2921 13.10375439306867
ONEWEB-0066             
1 45424U 20020A   26160.36442060  .00000335  00000+0  90841-3 0  9998
2 45424  87.8895  22.6286 0001736  78.5461 281.5862 13.11419451301657
ONEWEB-0067             
1 45425U 20020B   26160.32604662 -.00000341  00000+0 -99790-3 0  9994
2 45425  87.8914  22.5564 0001983  82.2899 277.8454 13.11422149301708
ONEWEB-0080             
1 45426U 20020C   26160.32556235 -.00000270  00000+0 -79668-3 0  9990
2 45426  87.8903  22.6315 0001525  88.9691 271.1612 13.11415252301673
ONEWEB-0090             
1 45427U 20020D   26160.35437990 -.00000059  00000+0 -20138-3 0  9993
2 45427  87.8904  22.6307 0001744  85.8338 274.2989 13.11419838301645
ONEWEB-0061             
1 45428U 20020E   26160.31003131  .00000367  00000+0  10000-2 0  9992
2 45428  87.8901  22.6240 0001755  83.3395 276.7933 13.11415978301598
ONEWEB-0081             
1 45429U 20020F   26160.36781586  .00000413  00000+0  11301-2 0  9992
2 45429  87.8896  22.6235 0001875  78.1313 282.0025 13.11419275301711
ONEWEB-0069             
1 45430U 20020G   26160.36964362  .00000486  00000+0  13360-2 0  9996
2 45430  87.8899  22.6258 0001846  81.5880 278.5458 13.11419957301645
ONEWEB-0031             
1 45431U 20020H   26160.32881409 -.00000357  00000+0 -10434-2 0  9991
2 45431  87.8890  22.6395 0001648  88.1638 271.9679 13.11416015301625
ONEWEB-0027             
1 45432U 20020J   26160.51135067  .00000002  00000+0 -28236-4 0  9992
2 45432  87.9149   7.3895 0001839  97.5031 262.6309 13.16053987305342
ONEWEB-0064             
1 45433U 20020K   26160.32711575 -.00000377  00000+0 -10999-2 0  9997
2 45433  87.8896  22.6313 0001734  89.3381 270.7945 13.11414477301653
ONEWEB-0018             
1 45434U 20020L   26159.51998770  .00007769  00000+0  21846-1 0  9993
2 45434  87.8896  22.7916 0001817 185.1746 174.9363 13.11481521301491
ONEWEB-0083             
1 45435U 20020M   26160.34930404 -.00000275  00000+0 -81073-3 0  9994
2 45435  87.8902  22.6199 0001724  84.2416 275.8909 13.11417990301645
ONEWEB-0095             
1 45436U 20020N   26160.34084405  .00001748  00000+0  48968-2 0  9995
2 45436  87.8915  22.6315 0002535  97.2999 262.8417 13.11407558301640
ONEWEB-0092             
1 45437U 20020P   26160.37227751  .00000493  00000+0  13439-2 0  9993
2 45437  87.8902  22.6157 0002148  85.7760 274.3613 13.11955328301761
ONEWEB-0085             
1 45438U 20020Q   26160.34902392 -.00000304  00000+0 -89276-3 0  9998
2 45438  87.8897  22.6272 0001808  84.6232 275.5103 13.11419423301642
ONEWEB-0096             
1 45439U 20020R   26160.35088610 -.00000233  00000+0 -69313-3 0  9999
2 45439  87.8904  22.6222 0001844  86.8824 273.2515 13.11423830301636
ONEWEB-0037             
1 45440U 20020S   26160.31084060  .00000281  00000+0  75180-3 0  9992
2 45440  87.8913  22.6038 0001896  85.7854 274.3491 13.11910959301662
ONEWEB-0042             
1 45441U 20020T   26160.34054021 -.00000649  00000+0 -18677-2 0  9997
2 45441  87.8901  22.6208 0001874  81.8297 278.3044 13.11416963301634
ONEWEB-0098             
1 45442U 20020U   26160.33644363 -.00000514  00000+0 -14868-2 0  9990
2 45442  87.8899  22.6307 0001717  85.7142 274.4182 13.11416508301612
ONEWEB-0055             
1 45443U 20020V   26160.31513240  .00000178  00000+0  46667-3 0  9995
2 45443  87.8899  22.6334 0001720  85.6318 274.5007 13.11413102301581
ONEWEB-0093             
1 45444U 20020W   26160.37134551  .00000556  00000+0  15325-2 0  9992
2 45444  87.8902  22.6152 0002031  74.0141 286.1210 13.11418626301656
ONEWEB-0029             
1 45445U 20020X   26160.32217586 -.00000187  00000+0 -56240-3 0  9992
2 45445  87.8890  22.6349 0001799  75.5200 284.6127 13.11417901301625
ONEWEB-0068             
1 45446U 20020Y   26160.37107825  .00000534  00000+0  14696-2 0  9994
2 45446  87.8904  22.6191 0001805  77.5979 282.5351 13.11417559301579
ONEWEB-0046             
1 45447U 20020Z   26160.36272350  .00000363  00000+0  98728-3 0  9999
2 45447  87.8892  22.6273 0002039  80.1472 279.9886 13.11419653301586
